{"spkid": "20363116", "covariance": {"labels": ["e", "q", "tp", "node", "peri", "i", "A2"], "elements": [{"units": null, "title": "eccentricity", "value": ".5031511292864289", "sigma": 2.34172943097095e-07, "name": "e", "label": "e"}, {"label": "q", "name": "q", "sigma": 2.82406010952899e-07, "value": ".6033577415566481", "title": "perihelion distance", "units": "au"}, {"label": "tp", "sigma": 2.06657904158925e-05, "name": "tp", "units": "TDB", "title": "time of perihelion passage", "value": "2457459.668498483329"}, {"sigma": 3.68122180178429e-06, "name": "om", "value": "37.15078730751272", "title": "longitude of the ascending node", "units": "deg", "label": "node"}, {"sigma": 2.78614420336407e-05, "name": "w", "units": "deg", "title": "argument of perihelion", "value": "280.2929084004668", "label": "peri"}, {"label": "i", "units": "deg", "value": "21.82263034487692", "title": "inclination", "sigma": 1.24660906017669e-05, "name": "i"}], "data": [["5.483696727875536E-14", "-6.61308091701E-14", "3.94516251121887E-12", "-9.345756861220619E-14", "6.462809399834461E-12", "2.1206066518813E-12", "-5.156746789946477E-22"], ["-6.61308091701E-14", "7.975315502232892E-14", "-4.760097736931385E-12", "1.124142071958617E-13", "-7.792725202704437E-12", "-2.555077936501554E-12", "6.352955707031367E-22"], ["3.94516251121887E-12", "-4.760097736931385E-12", "4.270748935135933E-10", "-5.74372980140224E-12", "4.721208134846834E-10", "1.780361577707305E-10", "-8.661681622006647E-20"], ["-9.345756861220619E-14", "1.124142071958617E-13", "-5.74372980140224E-12", "1.355139395393198E-11", "-2.239388171271268E-11", "-1.793463685426382E-11", "-2.723912028205383E-22"], ["6.462809399834461E-12", "-7.792725202704437E-12", "4.721208134846834E-10", "-2.239388171271268E-11", "7.76259952193919E-10", "2.662937460771018E-10", "-5.579928851052104E-20"], ["2.1206066518813E-12", "-2.555077936501554E-12", "1.780361577707305E-10", "-1.793463685426382E-11", "2.662937460771018E-10", "1.5540341489146E-10", "-1.374082547181658E-20"], ["-5.156746789946477E-22", "6.352955707031367E-22", "-8.661681622006647E-20", "-2.723912028205383E-22", "-5.579928851052104E-20", "-1.374082547181658E-20", "8.701379436199793E-29"]], "epoch": "2457423.5"}, "elements": [{"sigma": "2.3393E-7", "name": "e", "units": null, "title": "eccentricity", "value": ".5031592298305541", "label": "e"}, {"title": "semi-major axis", "value": "1.214472919989184", "units": "au", "sigma": "8.2421E-9", "name": "a", "label": "a"}, {"value": ".6033996609173623", "title": "perihelion distance", "units": "au", "name": "q", "sigma": "2.8268E-7", "label": "q"}, {"label": "i", "name": "i", "sigma": "1.2473E-5", "units": "deg", "value": "21.82094446276523", "title": "inclination; angle with respect to x-y ecliptic plane"}, {"title": "longitude of the ascending node", "value": "37.08571823997905", "units": "deg", "sigma": "3.6756E-6", "name": "om", "label": "node"}, {"name": "w", "sigma": "2.7885E-5", "title": "argument of perihelion", "value": "280.3196092812864", "units": "deg", "label": "peri"}, {"label": "M", "units": "deg", "value": "234.9995171364357", "title": "mean anomaly", "sigma": "3.0939E-5", "name": "ma"}, {"sigma": "4.3343E-5", "name": "tp", "units": "TDB", "value": "2461370.242021478997", "title": "time of perihelion passage", "label": "tp"}, {"label": "period", "value": "488.8551334568544", "title": "sidereal orbital period", "units": "d", "sigma": "4.9765E-6", "name": "per"}, {"label": "n", "sigma": "7.4966E-9", "name": "n", "units": "deg/d", "title": "mean motion", "value": ".7364144822502371"}, {"label": "Q", "name": "ad", "sigma": "1.2389E-8", "units": "au", "value": "1.825546179061007", "title": "aphelion distance"}], "epoch": "2461200.5"}